1 41986U 17008AQ  21180.42762603  .00004705  00000-0  16576-3 0  9990
2 41986  97.3225 248.9804 0008000  50.8791 309.3160 15.29752400242488
1 41986U 17008AQ  21180.82009923  .00005047  00000-0  17758-3 0  9996
2 41986  97.3225 249.3671 0007970  49.6005 310.5930 15.29756603242549
1 41986U 17008AQ  21181.47421921  .00005465  00000-0  19203-3 0  9995
2 41986  97.3225 250.0117 0007920  47.6222 312.5687 15.29763279242646
1 41986U 17008AQ  21181.67045460  .00005605  00000-0  19686-3 0  9998
2 41986  97.3225 250.2050 0007900  47.0093 313.1808 15.29765495242679
1 41986U 17008AQ  21181.86668954  .00005745  00000-0  20169-3 0  9991
2 41986  97.3225 250.3984 0007880  46.3835 313.8058 15.29767693242709
1 41986U 17008AQ  21182.45539270  .00006350  00000-0  22261-3 0  9993
2 41986  97.3224 250.9786 0007819  44.5375 315.6492 15.29774875242796
1 41986U 17008AQ  21182.91327101  .00006228  00000-0  21835-3 0  9992
2 41986  97.3225 251.4297 0007757  43.1045 317.0802 15.29780188242863
1 41986U 17008AQ  21183.43655852  .00005651  00000-0  19834-3 0  9992
2 41986  97.3226 251.9454 0007723  41.4124 318.7701 15.29785487242948
1 41986U 17008AQ  21183.89443333  .00005789  00000-0  20310-3 0  9994
2 41986  97.3228 252.3966 0007682  39.9504 320.2300 15.29791380243012
1 41986U 17008AQ  21184.09066494  .00005854  00000-0  20534-3 0  9997
2 41986  97.3228 252.5900 0007670  39.3458 320.8338 15.29793880243048
1 41986U 17008AQ  21184.48312747  .00005577  00000-0  19573-3 0  9998
2 41986  97.3229 252.9767 0007631  38.1472 322.0307 15.29797476243106
1 41986U 17008AQ  21184.87558905  .00005456  00000-0  19149-3 0  9994
2 41986  97.3229 253.3634 0007591  36.8991 323.2770 15.29801364243165
1 41986U 17008AQ  21185.20263958  .00004769  00000-0  16771-3 0  9997
2 41986  97.3229 253.6857 0007553  35.8404 324.3343 15.29803523243214
1 41986U 17008AQ  21185.46427951  .00004905  00000-0  17241-3 0  9995
2 41986  97.3229 253.9435 0007520  34.9622 325.2111 15.29806192243257
1 41986U 17008AQ  21185.72591893  .00005106  00000-0  17934-3 0  9994
2 41986  97.3230 254.2013 0007487  34.0806 326.0914 15.29809347243291
1 41986U 17008AQ  21186.44542548  .00004975  00000-0  17478-3 0  9993
2 41986  97.3230 254.9102 0007413  31.7447 328.4239 15.29816026243402
1 41986U 17008AQ  21186.83788240  .00004825  00000-0  16960-3 0  9996
2 41986  97.3231 255.2970 0007375  30.4396 329.7272 15.29819363243460
1 41986U 17008AQ  21187.49197448  .00005060  00000-0  17769-3 0  9993
2 41986  97.3233 255.9415 0007309  28.3637 331.8000 15.29826443243565
1 41986U 17008AQ  21187.75361057  .00005101  00000-0  17908-3 0  9992
2 41986  97.3233 256.1993 0007289  27.5402 332.6223 15.29829176243604
1 41986U 17008AQ  21187.88442850  .00005031  00000-0  17665-3 0  9999
2 41986  97.3233 256.3282 0007273  27.1107 333.0512 15.29830179243621
1 41986U 17008AQ  21188.66933319  .00004909  00000-0  17240-3 0  9993
2 41986  97.3232 257.1018 0007184  24.5374 335.6208 15.29838082243748
1 41986U 17008AQ  21189.12719233  .00004788  00000-0  16820-3 0  9990
2 41986  97.3232 257.5530 0007126  22.9772 337.1786 15.29842803243813
1 41986U 17008AQ  21189.45423346  .00004815  00000-0  16909-3 0  9992
2 41986  97.3231 257.8752 0007095  21.7963 338.3578 15.29846397243864
1 41986U 17008AQ  21189.65045809  .00004521  00000-0  15893-3 0  9993
2 41986  97.3231 258.0686 0007055  21.1701 338.9830 15.29847876243896
1 41986U 17008AQ  21190.17372266  .00004034  00000-0  14208-3 0  9990
2 41986  97.3230 258.5843 0007005  19.4344 340.7163 15.29851480243978
1 41986U 17008AQ  21190.50076223  .00003973  00000-0  13995-3 0  9994
2 41986  97.3230 258.9067 0006967  18.3178 341.8312 15.29854313244022
1 41986U 17008AQ  21190.82780136  .00003774  00000-0  13307-3 0  9990
2 41986  97.3229 259.2290 0006942  17.1727 342.9747 15.29856641244077
1 41986U 17008AQ  21191.41647026  .00003858  00000-0  13596-3 0  9999
2 41986  97.3228 259.8092 0006875  15.2118 344.9328 15.29861677244162
1 41986U 17008AQ  21191.67810051  .00003749  00000-0  13219-3 0  9998
2 41986  97.3228 260.0671 0006839  14.2976 345.8457 15.29863416244201
1 41986U 17008AQ  21192.46298876  .00003368  00000-0  11901-3 0  9994
2 41986  97.3226 260.8406 0006750  11.5371 348.6023 15.29868470244322
1 41986U 17008AQ  21192.85543236  .00003700  00000-0  13046-3 0  9992
2 41986  97.3224 261.2274 0006697  10.1006 350.0368 15.29871716244380
1 41986U 17008AQ  21193.31328214  .00003419  00000-0  12076-3 0  9990
2 41986  97.3223 261.6786 0006642   8.4314 351.7037 15.29874216244450
1 41986U 17008AQ  21193.77113133  .00003710  00000-0  13079-3 0  9990
2 41986  97.3223 262.1298 0006591   6.9546 353.1785 15.29877995244528
1 41986U 17008AQ  21193.83653812  .00003782  00000-0  13328-3 0  9996
2 41986  97.3223 262.1943 0006585   6.7005 353.4323 15.29878721244536
1 41986U 17008AQ  21194.49060645  .00003475  00000-0  12264-3 0  9992
2 41986  97.3222 262.8388 0006516   4.3100 355.8195 15.29881989244633
1 41986U 17008AQ  21194.68682649  .00003432  00000-0  12117-3 0  9997
2 41986  97.3222 263.0322 0006489   3.5515 356.5771 15.29883280244661
1 41986U 17008AQ  21195.14467242  .00003519  00000-0  12415-3 0  9996
2 41986  97.3220 263.4835 0006443   1.8598 358.2665 15.29886707244730
1 41986U 17008AQ  21195.40629900  .00003070  00000-0  10865-3 0  9995
2 41986  97.3221 263.7413 0006409   0.9514 359.1738 15.29886692244774
1 41986U 17008AQ  21195.73333146  .00002940  00000-0  10417-3 0  9993
2 41986  97.3220 264.0637 0006371 359.7481   0.3756 15.29888243244826
1 41986U 17008AQ  21196.25658130  .00003480  00000-0  12279-3 0  9992
2 41986  97.3220 264.5793 0006310 357.7915   2.3297 15.29893576244903
1 41986U 17008AQ  21197.30307833  .00003555  00000-0  12537-3 0  9990
2 41986  97.3220 265.6106 0006196 353.8825   6.2339 15.29900937245060
1 41986U 17008AQ  21198.15335321  .00003470  00000-0  12239-3 0  9992
2 41986  97.3218 266.4485 0006097 350.6607   9.4519 15.29907222245192
1 41986U 17008AQ  21198.74200297  .00003306  00000-0  11673-3 0  9999
2 41986  97.3219 267.0286 0006021 348.4613  11.6489 15.29911224245286
1 41986U 17008AQ  21199.19984041  .00003286  00000-0  11603-3 0  9995
2 41986  97.3219 267.4798 0005962 346.5490  13.5591 15.29914515245352
1 41986U 17008AQ  21199.85389252  .00003272  00000-0  11554-3 0  9991
2 41986  97.3221 268.1242 0005893 343.8863  16.2190 15.29918966245454
1 41986U 17008AQ  21199.98470269  .00003327  00000-0  11742-3 0  9994
2 41986  97.3221 268.2532 0005881 343.3239  16.7808 15.29919979245474
1 41986U 17008AQ  21200.83496684  .00003428  00000-0  12088-3 0  9996
2 41986  97.3222 269.0911 0005781 339.8722  20.2290 15.29926268245600
1 41986U 17008AQ  21201.42360875  .00004152  00000-0  14584-3 0  9992
2 41986  97.3223 269.6713 0005730 337.5789  22.5200 15.29932540245694
1 41986U 17008AQ  21201.75063147  .00004219  00000-0  14814-3 0  9990
2 41986  97.3224 269.9935 0005702 336.2599  23.8378 15.29935160245745
1 41986U 17008AQ  21202.47007833  .00004982  00000-0  17440-3 0  9995
2 41986  97.3225 270.7025 0005646 333.1722  26.9226 15.29943209245858
1 41986U 17008AQ  21202.86250264  .00005129  00000-0  17947-3 0  9992
2 41986  97.3225 271.0892 0005614 331.4416  28.6516 15.29947097245917
1 41986U 17008AQ  21203.32032975  .00005129  00000-0  17944-3 0  9998
2 41986  97.3225 271.5405 0005582 329.3821  30.7093 15.29951454245985
1 41986U 17008AQ  21203.71275089  .00006618  00000-0  23069-3 0  9995
2 41986  97.3225 271.9272 0005565 327.6796  32.4103 15.29959517246041
1 41986U 17008AQ  21204.43218674  .00005299  00000-0  18522-3 0  9994
2 41986  97.3224 272.6364 0005496 324.5760  35.5115 15.29965459246151
1 41986U 17008AQ  21204.82460488  .00006861  00000-0  23895-3 0  9994
2 41986  97.3224 273.0231 0005472 322.8746  37.2116 15.29973069246211
1 41986U 17008AQ  21205.15161849  .00007326  00000-0  25494-3 0  9994
2 41986  97.3223 273.3455 0005447 321.4046  38.6805 15.29978395246263
1 41986U 17008AQ  21205.21702121  .00006184  00000-0  21562-3 0  9998
2 41986  97.3223 273.4100 0005438 321.1203  38.9646 15.29977019246272
1 41986U 17008AQ  21206.45966621  .00005409  00000-0  18886-3 0  9996
2 41986  97.3218 274.6348 0005352 315.3872  44.6937 15.29990180246467
1 41986U 17008AQ  21207.44069386  .00005138  00000-0  17949-3 0  9996
2 41986  97.3215 275.6018 0005293 310.8224  49.2557 15.30000818246612
1 41986U 17008AQ  21207.89850492  .00004869  00000-0  17021-3 0  9992
2 41986  97.3215 276.0530 0005265 308.7628  51.3142 15.30005013246682
1 41986U 17008AQ  21208.22551194  .00004939  00000-0  17258-3 0  9997
2 41986  97.3214 276.3754 0005242 307.3785  52.6978 15.30008475246738
1 41986U 17008AQ  21208.61791988  .00004825  00000-0  16866-3 0  9995
2 41986  97.3212 276.7621 0005212 305.6473  54.4282 15.30011648246795
1 41986U 17008AQ  21209.14112841  .00005193  00000-0  18128-3 0  9991
2 41986  97.3211 277.2778 0005204 303.1765  56.8976 15.30017656246871
1 41986U 17008AQ  21209.27192991  .00005484  00000-0  19129-3 0  9994
2 41986  97.3211 277.4067 0005197 302.5864  57.4874 15.30019891246897
1 41986U 17008AQ  21209.92593735  .00005552  00000-0  19356-3 0  9995
2 41986  97.3210 278.0513 0005187 299.5429  60.5295 15.30026484246999
1 41986U 17008AQ  21210.31834028  .00005626  00000-0  19609-3 0  9996
2 41986  97.3209 278.4380 0005165 297.5656  62.5060 15.30030712247058
1 41986U 17008AQ  21210.71074188  .00005600  00000-0  19519-3 0  9995
2 41986  97.3209 278.8247 0005163 295.6875  64.3833 15.30035321247110
1 41986U 17008AQ  21211.43014180  .00005222  00000-0  18213-3 0  9991
2 41986  97.3209 279.5338 0005132 292.3408  67.7289 15.30043013247222
1 41986U 17008AQ  21211.62634128  .00005172  00000-0  18040-3 0  9994
2 41986  97.3209 279.7271 0005125 291.3320  68.7373 15.30045193247253
1 41986U 17008AQ  21211.88794005  .00005159  00000-0  17996-3 0  9997
2 41986  97.3210 279.9849 0005114 290.1323  69.9368 15.30048026247295
1 41986U 17008AQ  21212.41113654  .00004844  00000-0  16911-3 0  9998
2 41986  97.3210 280.5005 0005097 287.6756  72.3928 15.30052607247377
